[{"OBJECT_NAME":"HAIYANG-1D","OBJECT_ID":"2020-036A","EPOCH":"2026-03-09T23:25:01.064928","MEAN_MOTION":14.34203306,"ECCENTRICITY":0.00036798,"INCLINATION":98.4473,"RA_OF_ASC_NODE":12.8565,"ARG_OF_PERICENTER":84.5476,"MEAN_ANOMALY":275.6129,"EPHEMERIS_TYPE":0,"CLASSIFICATION_TYPE":"U","NORAD_CAT_ID":45721,"ELEMENT_SET_NO":999,"REV_AT_EPOCH":30075,"BSTAR":9.1285055e-5,"MEAN_MOTION_DOT":2.13e-6,"MEAN_MOTION_DDOT":0},{"OBJECT_NAME":"COSMOS 886 DEB","OBJECT_ID":"1976-126J","EPOCH":"2026-03-09T21:15:56.309760","MEAN_MOTION":12.96519014,"ECCENTRICITY":0.08881878,"INCLINATION":65.8322,"RA_OF_ASC_NODE":329.6051,"ARG_OF_PERICENTER":17.8083,"MEAN_ANOMALY":345.206,"EPHEMERIS_TYPE":0,"CLASSIFICATION_TYPE":"U","NORAD_CAT_ID":9652,"ELEMENT_SET_NO":999,"REV_AT_EPOCH":29599,"BSTAR":0.0012943963,"MEAN_MOTION_DOT":2.381e-5,"MEAN_MOTION_DDOT":0}]
